OBJECT_NAME,OBJECT_ID,EPOCH,MEAN_MOTION,ECCENTRICITY,INCLINATION,RA_OF_ASC_NODE,ARG_OF_PERICENTER,MEAN_ANOMALY,EPHEMERIS_TYPE,CLASSIFICATION_TYPE,NORAD_CAT_ID,ELEMENT_SET_NO,REV_AT_EPOCH,BSTAR,MEAN_MOTION_DOT,MEAN_MOTION_DDOT
STARLINK-31144,2023-211R,2026-07-07T23:06:05.051808,15.27552535,.0001502,43.0021,125.6148,251.4362,108.6326,0,U,58682,999,14086,-.47847E-4,-.1577E-4,0
STARLINK-31095,2023-211S,2026-07-07T22:51:26.796672,15.27577844,.0001468,43.0038,126.4068,262.5894,97.4791,0,U,58683,999,14212,.5436E-4,.1234E-4,0
STARLINK-31107,2023-211T,2026-07-07T05:44:59.634240,15.27554960,.00012734,42.9997,130.5147,289.0337,71.0377,0,U,58684,999,14074,.9072961E-5,-.13E-6,0
STARLINK-31121,2023-211U,2026-07-08T03:54:03.298752,15.27571171,.0001191,43.0008,124.5409,288.5154,71.5568,0,U,58685,999,14089,.18761E-3,.4903E-4,0
STARLINK-31137,2023-211V,2026-07-07T22:29:14.556192,15.27606311,.0001171,43.0007,126.2916,266.5095,93.5622,0,U,58686,999,14085,.64944E-3,.17666E-3,0
STARLINK-31106,2023-211Y,2026-07-08T04:34:45.106176,15.27612247,.0000345,42.9988,124.7555,268.7643,91.3169,0,U,58689,999,14089,.27247E-3,.7251E-4,0
HULIANWANG JISHU SHIYAN 4A,2023-212A,2026-07-08T03:51:51.240672,13.41458580,.0001233,50.0004,266.9008,194.2907,165.7935,0,U,58691,999,12406,.51352E-4,-.1E-5,0
HULIANWANG JISHU SHIYAN 4B,2023-212B,2026-07-08T03:42:12.068640,13.41459752,.0001386,49.9972,267.2848,183.9009,176.1858,0,U,58692,999,12406,.54494E-4,-.98E-6,0
HULIANWANG JISHU SHIYAN 4C,2023-212C,2026-07-08T03:46:53.238432,13.41461517,.0001277,49.9986,267.3990,173.3255,186.7639,0,U,58693,999,12407,.4751E-4,-.102E-5,0
OVZON-3,2024-003A,2026-07-08T03:43:00.563232,1.00271902,.0000038,0.0106,84.7696,202.9830,113.8002,0,U,58698,999,765,0,.67E-6,0
TIANMU-1 15,2024-004A,2026-07-08T04:48:50.376384,15.26864057,.0005699,97.4674,15.3913,259.3799,100.6798,0,U,58700,999,13898,.13119E-3,.3388E-4,0
TIANMU-1 16,2024-004B,2026-07-08T04:34:21.062784,15.26966477,.0004324,97.4620,14.6017,279.5167,80.5583,0,U,58701,999,13898,.12552E-3,.3248E-4,0
TIANMU-1 17,2024-004C,2026-07-08T04:13:25.911840,15.26965239,.0003879,97.4649,15.0799,287.3477,72.7337,0,U,58702,999,13897,.12491E-3,.3232E-4,0
TIANMU-1 18,2024-004D,2026-07-08T05:12:48.635712,15.26881951,.0003396,97.4666,15.3830,259.4090,100.6766,0,U,58703,999,13898,.13139E-3,.3394E-4,0
STARLINK-11072 [DTC],2024-002A,2026-07-07T20:57:50.719680,15.69692720,.0001031,53.1575,41.5525,81.6662,278.4472,0,U,58705,999,14531,.36348E-4,.3814E-4,0
STARLINK-11075 [DTC],2024-002B,2026-07-07T20:08:23.722080,15.69690036,.000096,53.1594,41.3347,123.1976,236.9134,0,U,58706,999,14531,.43679E-4,.4702E-4,0
STARLINK-11077 [DTC],2024-002C,2026-07-07T21:11:58.001280,15.69697943,.0001181,53.1588,41.6032,114.4834,245.6307,0,U,58707,999,14531,.35202E-4,.3676E-4,0
STARLINK-11079 [DTC],2024-002D,2026-07-07T20:50:48.014592,15.69681996,.0001184,53.1583,41.5158,109.5291,250.5854,0,U,58708,999,14531,.28011E-4,.2802E-4,0
STARLINK-11076 [DTC],2024-002E,2026-07-07T20:43:42.964608,15.69708733,.000107,53.1572,41.4907,84.4348,275.6792,0,U,58709,999,14531,.14803E-4,.1205E-4,0
STARLINK-11078 [DTC],2024-002F,2026-07-07T23:40:01.405632,15.69696796,.000125,53.1588,40.8303,93.7042,266.4118,0,U,58710,999,14533,.28271E-4,.2836E-4,0
STARLINK-31031,2024-002G,2026-07-07T23:36:54.957024,15.34382345,.0001792,53.1613,29.7173,40.4082,319.7053,0,U,58711,999,14045,.11773E-3,.3601E-4,0
STARLINK-31029,2024-002H,2026-07-07T23:20:26.039040,15.30185094,.000111,53.1618,31.0566,73.5813,286.5310,0,U,58712,999,14043,.19323E-3,.5365E-4,0
STARLINK-30973,2024-002J,2026-07-07T23:29:33.645696,15.30193387,.0000839,53.1604,31.0961,133.0459,227.0613,0,U,58713,999,14043,.22355E-3,.6266E-4,0
STARLINK-31100,2024-002K,2026-07-07T23:34:06.356064,15.30187710,.0000786,53.1609,31.1167,129.1976,230.9094,0,U,58714,999,14043,.18329E-3,.5071E-4,0
STARLINK-31102,2024-002L,2026-07-07T19:47:00.915360,15.34377193,.0001019,53.1601,30.8469,85.1683,274.9436,0,U,58715,999,14042,.91487E-4,.2714E-4,0
STARLINK-31098,2024-002M,2026-07-07T23:37:09.036768,15.30191480,.0000951,53.1604,31.1286,131.5240,228.5842,0,U,58716,999,14043,.22262E-3,.6238E-4,0
STARLINK-31093,2024-002N,2026-07-07T20:39:40.851936,15.30173420,.0000932,53.1608,31.7972,95.9372,264.1735,0,U,58717,999,14041,.5656E-4,.1315E-4,0
STARLINK-31097,2024-002P,2026-07-07T20:35:07.333728,15.30182993,.0001106,53.1597,31.7595,82.7655,277.3471,0,U,58718,999,14041,.16688E-3,.4584E-4,0
STARLINK-31051,2024-002Q,2026-07-07T20:42:43.211232,15.30190858,.0000994,53.1618,31.7911,110.0151,250.0957,0,U,58719,999,14041,.49216E-5,-.213E-5,0
STARLINK-31027,2024-002R,2026-07-08T00:00:02.000160,15.75622126,.0005967,53.1389,358.5109,13.5748,111.6601,0,U,58720,999,557,.42612E-3,.66362E-3,0
