STARLINK-31144          
1 58682U 23211R   26188.96255847 -.00001577  00000+0 -47847-4 0  9994
2 58682  43.0021 125.6148 0001502 251.4362 108.6326 15.27552535140864
STARLINK-31095          
1 58683U 23211S   26188.95239348  .00001234  00000+0  54360-4 0  9998
2 58683  43.0038 126.4068 0001468 262.5894  97.4791 15.27577844142129
STARLINK-31107          
1 58684U 23211T   26188.23957910 -.00000013  00000+0  90730-5 0  9999
2 58684  42.9997 130.5147 0001273 289.0337  71.0377 15.27554960140744
STARLINK-31121          
1 58685U 23211U   26189.16253818  .00004903  00000+0  18761-3 0  9992
2 58685  43.0008 124.5409 0001191 288.5154  71.5568 15.27571171140890
STARLINK-31137          
1 58686U 23211V   26188.93697403  .00017666  00000+0  64944-3 0  9993
2 58686  43.0007 126.2916 0001171 266.5095  93.5622 15.27606311140856
STARLINK-31106          
1 58689U 23211Y   26189.19079984  .00007251  00000+0  27247-3 0  9997
2 58689  42.9988 124.7555 0000345 268.7643  91.3169 15.27612247140893
HULIANWANG JISHU SHIYAN*
1 58691U 23212A   26189.16100973 -.00000100  00000+0  51352-4 0  9993
2 58691  50.0004 266.9008 0001233 194.2907 165.7935 13.41458580124060
HULIANWANG JISHU SHIYAN*
1 58692U 23212B   26189.15430635 -.00000098  00000+0  54494-4 0  9990
2 58692  49.9972 267.2848 0001386 183.9009 176.1858 13.41459752124067
HULIANWANG JISHU SHIYAN*
1 58693U 23212C   26189.15756063 -.00000102  00000+0  47510-4 0  9994
2 58693  49.9986 267.3990 0001277 173.3255 186.7639 13.41461517124074
OVZON-3                 
1 58698U 24003A   26189.15486763  .00000067  00000+0  00000+0 0  9992
2 58698   0.0106  84.7696 0000038 202.9830 113.8002  1.00271902  7655
TIANMU-1 15             
1 58700U 24004A   26189.20058306  .00003388  00000+0  13119-3 0  9999
2 58700  97.4674  15.3913 0005699 259.3799 100.6798 15.26864057138988
TIANMU-1 16             
1 58701U 24004B   26189.19052156  .00003248  00000+0  12552-3 0  9990
2 58701  97.4620  14.6017 0004324 279.5167  80.5583 15.26966477138981
TIANMU-1 17             
1 58702U 24004C   26189.17599435  .00003232  00000+0  12491-3 0  9990
2 58702  97.4649  15.0799 0003879 287.3477  72.7337 15.26965239138974
TIANMU-1 18             
1 58703U 24004D   26189.21722958  .00003394  00000+0  13139-3 0  9993
2 58703  97.4666  15.3830 0003396 259.4090 100.6766 15.26881951138984
STARLINK-11072 [DTC]    
1 58705U 24002A   26188.87350370  .00003814  00000+0  36348-4 0  9994
2 58705  53.1575  41.5525 0001031  81.6662 278.4472 15.69692720145314
STARLINK-11075 [DTC]    
1 58706U 24002B   26188.83916345  .00004702  00000+0  43679-4 0  9993
2 58706  53.1594  41.3347 0000960 123.1976 236.9134 15.69690036145318
STARLINK-11077 [DTC]    
1 58707U 24002C   26188.88331020  .00003676  00000+0  35202-4 0  9992
2 58707  53.1588  41.6032 0001181 114.4834 245.6307 15.69697943145311
STARLINK-11079 [DTC]    
1 58708U 24002D   26188.86861128  .00002802  00000+0  28011-4 0  9998
2 58708  53.1583  41.5158 0001184 109.5291 250.5854 15.69681996145313
STARLINK-11076 [DTC]    
1 58709U 24002E   26188.86369172  .00001205  00000+0  14803-4 0  9991
2 58709  53.1572  41.4907 0001070  84.4348 275.6792 15.69708733145319
STARLINK-11078 [DTC]    
1 58710U 24002F   26188.98612738  .00002836  00000+0  28271-4 0  9990
2 58710  53.1588  40.8303 0001250  93.7042 266.4118 15.69696796145332
STARLINK-31031          
1 58711U 24002G   26188.98396941  .00003601  00000+0  11773-3 0  9995
2 58711  53.1613  29.7173 0001792  40.4082 319.7053 15.34382345140459
STARLINK-31029          
1 58712U 24002H   26188.97252360  .00005365  00000+0  19323-3 0  9999
2 58712  53.1618  31.0566 0001110  73.5813 286.5310 15.30185094140433
STARLINK-30973          
1 58713U 24002J   26188.97886164  .00006266  00000+0  22355-3 0  9995
2 58713  53.1604  31.0961 0000839 133.0459 227.0613 15.30193387140433
STARLINK-31100          
1 58714U 24002K   26188.98201801  .00005071  00000+0  18329-3 0  9995
2 58714  53.1609  31.1167 0000786 129.1976 230.9094 15.30187710140438
STARLINK-31102          
1 58715U 24002L   26188.82431615  .00002714  00000+0  91487-4 0  9995
2 58715  53.1601  30.8469 0001019  85.1683 274.9436 15.34377193140425
STARLINK-31098          
1 58716U 24002M   26188.98413237  .00006238  00000+0  22262-3 0  9992
2 58716  53.1604  31.1286 0000951 131.5240 228.5842 15.30191480140435
STARLINK-31093          
1 58717U 24002N   26188.86088949  .00001315  00000+0  56560-4 0  9998
2 58717  53.1608  31.7972 0000932  95.9372 264.1735 15.30173420140415
STARLINK-31097          
1 58718U 24002P   26188.85772377  .00004584  00000+0  16688-3 0  9990
2 58718  53.1597  31.7595 0001106  82.7655 277.3471 15.30182993140414
STARLINK-31051          
1 58719U 24002Q   26188.86300013 -.00000213  00000+0  49216-5 0  9997
2 58719  53.1618  31.7911 0000994 110.0151 250.0957 15.30190858140417
STARLINK-31027          
1 58720U 24002R   26189.00002315  .00066362  00000+0  42612-3 0  9997
2 58720  53.1389 358.5109 0005967  13.5748 111.6601 15.75622126  5579
